OBJECT_NAME,OBJECT_ID,EPOCH,MEAN_MOTION,ECCENTRICITY,INCLINATION,RA_OF_ASC_NODE,ARG_OF_PERICENTER,MEAN_ANOMALY,EPHEMERIS_TYPE,CLASSIFICATION_TYPE,NORAD_CAT_ID,ELEMENT_SET_NO,REV_AT_EPOCH,BSTAR,MEAN_MOTION_DOT,MEAN_MOTION_DDOT
2022-023F,2022-023F,2026-07-23T05:54:54.307296,15.18026393,.0133629,63.4455,150.9015,341.5937,18.0364,0,U,51951,999,24318,.43261E-3,.10951E-3,0
MERIDIAN 10,2022-030A,2026-07-23T20:33:42.886368,2.00606898,.67940726,62.6793,136.8260,272.8305,17.5933,0,U,52145,999,3176,0,.114E-5,0
OMNI-L1,2022-033A,2026-07-24T05:25:05.219040,14.82869992,.00060156,97.8384,283.6842,150.9351,209.2199,0,U,52157,999,23294,.23924826E-3,.1886E-4,0
ENMAP,2022-033C,2026-07-24T08:11:59.688384,14.74947247,.00012558,97.9784,287.0615,89.0507,271.0846,0,U,52159,999,23213,.10846802E-3,.679E-5,0
ARCSAT-1,2022-033E,2026-07-24T05:08:43.905984,15.54476086,.00060673,97.2748,298.0597,72.3097,287.8819,0,U,52161,999,24145,.25997323E-3,.17024E-3,0
GLOBAL-18,2022-034B,2026-07-24T03:30:10.508544,15.47556372,.00046409,52.9812,79.8352,46.2274,313.9116,0,U,52196,999,24268,.57368472E-3,.29696E-3,0
GAOFEN-3 03,2022-035A,2026-07-24T06:39:35.474688,14.42219445,.00017844,98.4078,213.3208,83.2711,276.8682,0,U,52200,999,22619,.83786828E-4,.233E-5,0
DAQI-1,2022-039A,2026-07-24T06:44:35.326752,14.57697723,.00045905,98.1478,143.3670,124.7770,235.3861,0,U,52257,999,22734,.1414465E-3,.6E-5,0
BRO-6,2022-047AE,2026-07-24T06:41:26.615328,15.53210083,.00033348,97.3385,297.1137,261.6260,98.4616,0,U,52422,999,23690,.1072919E-2,.67794E-3,0
JILIN-1 GAOFEN 3D27,2022-048B,2026-07-24T03:13:31.057536,15.86070491,.00059335,97.5734,322.7180,230.5380,129.5365,0,U,52444,999,23531,.11682683E-2,.296199E-2,0
JILIN-1 GAOFEN 3D28,2022-048C,2026-07-24T06:51:06.881184,15.92398185,.0005771,97.5646,323.2611,235.7559,124.3169,0,U,52445,999,23540,.11434348E-2,.383922E-2,.58611531E-4
VIGORIDE-3,2022-057AE,2026-07-24T07:05:16.817856,15.27622006,.0008083,97.6646,346.2723,4.4699,355.6610,0,U,52760,999,23082,.22530935E-3,.601E-4,0
ION SCV-006,2022-057AF,2026-07-24T07:46:49.283328,15.46092023,.00159219,97.6136,355.7594,344.0186,16.0558,0,U,52761,999,23185,.29740437E-3,.14534E-3,0
SHERPA-AC1,2022-057AH,2026-07-24T07:38:07.118880,15.36731791,.00064243,97.6724,356.1150,329.1087,30.9777,0,U,52763,999,23140,.23906951E-3,.8497E-4,0
OMNI-L2,2022-057AR,2026-07-24T03:17:16.760256,14.81455220,.00064423,97.4695,265.0100,188.9593,171.1507,0,U,52771,999,22586,.17287732E-3,.1307E-4,0
STEP CUBE LAB-II,2022-065D,2026-07-24T08:00:14.024160,14.63353184,.00072172,98.2273,349.1311,268.4688,91.5687,0,U,52897,999,21693,.14917757E-3,.722E-5,0
RANDEV,2022-065E,2026-07-24T07:47:36.657312,14.63742433,.00065305,98.2259,349.4907,268.8876,91.1578,0,U,52898,999,21668,.16818759E-3,.828E-5,0
SNUGLITE-II,2022-065F,2026-07-23T20:38:55.650912,14.64405981,.00061448,98.2247,349.6360,267.8566,92.1933,0,U,52899,999,21636,.17141204E-3,.858E-5,0
MIMAN,2022-065G,2026-07-24T06:47:47.248800,14.61879001,.00062896,98.2307,347.5888,269.8431,90.2049,0,U,52900,999,21586,.11463605E-3,.526E-5,0
STARLINK-4362,2022-077A,2026-07-24T02:00:18.671616,15.05655116,.00015733,97.2868,22.0404,99.5985,260.5421,0,U,53043,999,22143,-.6065588E-5,-.144E-5,0
LARES-2,2022-080A,2026-07-18T18:51:23.050944,6.38965084,.00054794,70.1539,294.4914,328.1411,31.8962,0,U,53105,999,9368,0,-.2E-6,0
GREENCUBE (IO-117),2022-080E,2026-07-24T05:25:06.013056,6.42583383,.00091748,70.1383,285.3666,281.6416,78.3214,0,U,53109,999,9444,0,-.3E-7,0
STARLINK-4410,2022-084R,2026-07-24T03:49:14.934432,15.37001373,.0001625,97.5963,267.5753,78.9292,281.2134,0,U,53204,999,22069,-.22017298E-3,-.8036E-4,0
COSMOS 2558,2022-089A,2026-07-23T19:58:04.785312,15.83934031,.0004158,97.2225,310.6173,219.4857,140.6111,0,U,53323,999,22361,.77425E-3,.174747E-2,0
TECMS,2022-090A,2026-07-24T07:41:35.445696,15.21283580,.00051857,97.3120,272.3720,63.4375,296.7392,0,U,53346,999,22045,.21588194E-3,.4761E-4,0
DONGPO 02,2022-098J,2026-07-24T04:36:07.623360,15.83544645,.00042205,97.5556,339.8480,203.9598,156.1476,0,U,53452,999,22063,.10081276E-2,.224749E-2,0
DONGPO 01,2022-098K,2026-07-24T07:25:17.968800,15.80142825,.00027045,97.5627,340.3764,201.1716,158.9439,0,U,53453,999,22060,.88435326E-3,.167371E-2,0
STARLINK-4400,2022-099D,2026-07-24T07:53:13.323552,15.05663148,.00020296,97.2834,322.3508,115.7072,244.4365,0,U,53468,999,21653,-.65936429E-4,-.1008E-4,0
STARLINK-4621,2022-105AE,2026-07-24T04:45:48.623616,15.05653999,.00026588,97.2846,82.2468,81.4325,278.7204,0,U,53676,999,21377,.22944144E-4,.275E-5,0
