2022-023F               
1 51951U 22023F   26204.24646189  .00010951  00000+0  43261-3 0  9998
2 51951  63.4455 150.9015 0133629 341.5937  18.0364 15.18026393243185
MERIDIAN 10             
1 52145U 22030A   26204.85674637  .00000114  00000+0  00000+0 0  9998
2 52145  62.6793 136.8260 6794072 272.8305  17.5933  2.00606898 31764
OMNI-L1                 
1 52157U 22033A   26205.22575485  .00001886  00000+0  23925-3 0  9999
2 52157  97.8384 283.6842 0006015 150.9351 209.2199 14.82869992232940
ENMAP                   
1 52159U 22033C   26205.34166306  .00000679  00000+0  10847-3 0  9990
2 52159  97.9784 287.0615 0001255  89.0507 271.0846 14.74947247232137
ARCSAT-1                
1 52161U 22033E   26205.21439706  .00017024  00000+0  25997-3 0  9990
2 52161  97.2748 298.0597 0006067  72.3097 287.8819 15.54476086241456
GLOBAL-18               
1 52196U 22034B   26205.14595496  .00029696  00000+0  57368-3 0  9995
2 52196  52.9812  79.8352 0004640  46.2274 313.9116 15.47556372242686
GAOFEN-3 03             
1 52200U 22035A   26205.27749392  .00000233  00000+0  83787-4 0  9993
2 52200  98.4078 213.3208 0001784  83.2711 276.8682 14.42219445226193
DAQI-1                  
1 52257U 22039A   26205.28096443  .00000600  00000+0  14145-3 0  9991
2 52257  98.1478 143.3670 0004590 124.7770 235.3861 14.57697723227347
BRO-6                   
1 52422U 22047AE  26205.27878027  .00067794  00000+0  10729-2 0  9999
2 52422  97.3385 297.1137 0003334 261.6260  98.4616 15.53210083236900
JILIN-1 GAOFEN 3D27     
1 52444U 22048B   26205.13438724  .00296199  00000+0  11683-2 0  9998
2 52444  97.5734 322.7180 0005933 230.5380 129.5365 15.86070491235316
JILIN-1 GAOFEN 3D28     
1 52445U 22048C   26205.28549631  .00383922  58612-4  11434-2 0  9997
2 52445  97.5646 323.2611 0005771 235.7559 124.3169 15.92398185235404
VIGORIDE-3              
1 52760U 22057AE  26205.29533354  .00006010  00000+0  22531-3 0  9997
2 52760  97.6646 346.2723 0008083   4.4699 355.6610 15.27622006230820
ION SCV-006             
1 52761U 22057AF  26205.32418152  .00014534  00000+0  29740-3 0  9999
2 52761  97.6136 355.7594 0015921 344.0186  16.0558 15.46092023231853
SHERPA-AC1              
1 52763U 22057AH  26205.31813795  .00008497  00000+0  23907-3 0  9992
2 52763  97.6724 356.1150 0006424 329.1087  30.9777 15.36731791231403
OMNI-L2                 
1 52771U 22057AR  26205.13699954  .00001307  00000+0  17288-3 0  9998
2 52771  97.4695 265.0100 0006442 188.9593 171.1507 14.81455220225864
STEP CUBE LAB-II        
1 52897U 22065D   26205.33349565  .00000722  00000+0  14918-3 0  9995
2 52897  98.2273 349.1311 0007217 268.4688  91.5687 14.63353184216930
RANDEV                  
1 52898U 22065E   26205.32472983  .00000828  00000+0  16819-3 0  9995
2 52898  98.2259 349.4907 0006530 268.8876  91.1578 14.63742433216685
SNUGLITE-II             
1 52899U 22065F   26204.86036633  .00000858  00000+0  17141-3 0  9994
2 52899  98.2247 349.6360 0006144 267.8566  92.1933 14.64405981216360
MIMAN                   
1 52900U 22065G   26205.28318575  .00000526  00000+0  11464-3 0  9996
2 52900  98.2307 347.5888 0006289 269.8431  90.2049 14.61879001215861
STARLINK-4362           
1 53043U 22077A   26205.08354944 -.00000144  00000+0 -60656-5 0  9993
2 53043  97.2868  22.0404 0001573  99.5985 260.5421 15.05655116221437
LARES-2                 
1 53105U 22080A   26199.78568346 -.00000020  00000+0  00000+0 0  9991
2 53105  70.1539 294.4914 0005479 328.1411  31.8962  6.38965084 93683
GREENCUBE (IO-117)      
1 53109U 22080E   26205.22576404 -.00000003  00000+0  00000+0 0  9997
2 53109  70.1383 285.3666 0009174 281.6416  78.3214  6.42583383 94445
STARLINK-4410           
1 53204U 22084R   26205.15920063 -.00008036  00000+0 -22017-3 0  9994
2 53204  97.5963 267.5753 0001625  78.9292 281.2134 15.37001373220691
COSMOS 2558             
1 53323U 22089A   26204.83199983  .00174747  00000+0  77425-3 0  9998
2 53323  97.2225 310.6173 0004158 219.4857 140.6111 15.83934031223615
TECMS                   
1 53346U 22090A   26205.32054914  .00004761  00000+0  21588-3 0  9991
2 53346  97.3120 272.3720 0005185  63.4375 296.7392 15.21283580220451
DONGPO 02               
1 53452U 22098J   26205.19175490  .00224749  00000+0  10081-2 0  9990
2 53452  97.5556 339.8480 0004220 203.9598 156.1476 15.83544645220635
DONGPO 01               
1 53453U 22098K   26205.30923575  .00167371  00000+0  88435-3 0  9995
2 53453  97.5627 340.3764 0002704 201.1716 158.9439 15.80142825220601
STARLINK-4400           
1 53468U 22099D   26205.32862643 -.00001008  00000+0 -65936-4 0  9990
2 53468  97.2834 322.3508 0002029 115.7072 244.4365 15.05663148216534
STARLINK-4621           
1 53676U 22105AE  26205.19847944  .00000275  00000+0  22944-4 0  9996
2 53676  97.2846  82.2468 0002658  81.4325 278.7204 15.05653999213771
